{"type": "FeatureCollection", "features": [{"type": "Feature", "properties": {"OBJECTID": 1, "reg_no": 1, "RegionID": 1, "Shape_Leng": 47946.27149, "Shape_Area": 46327253.99}, "geometry": {"type": "MultiPolygon", "coordinates": [[[[51.5274271131606, 35.7772872407199], [51.5223418035573, 35.7776175468731], [51.5186761606204, 35.7789035189089], [51.5132271028298, 35.7824770097838], [51.5081408953712, 35.7840605685712], [51.5004344968932, 35.7861320706065], [51.4936682521441, 35.7856396263475], [51.4902654740055, 35.7860280458345], [51.4811455586154, 35.7899538570978], [51.4765323405796, 35.7902465898074], [51.4733900528445, 35.790379457772], [51.4695724458631, 35.7914695005215], [51.4615077642298, 35.793191449065], [51.4582466490862, 35.7924492688675], [51.4527760051994, 35.7891924853002], [51.4489106693163, 35.7873581617245], [51.4436362303353, 35.7856238869743], [51.4375556012151, 35.7843411864886], [51.4346282532471, 35.782766035502], [51.433044038526, 35.7809229810117], [51.4278288601819, 35.7785223320824], [51.425605701598, 35.7817015771302], [51.4222442107221, 35.785252642986], [51.4206648808666, 35.7882489377765], [51.4186813805859, 35.7900252325422], [51.4162479795896, 35.7908999169911], [51.4105467617762, 35.7919676889508], [51.4072975490354, 35.7918525656078], [51.4038405981294, 35.7935892923286], [51.4015150113964, 35.7936198915879], [51.3992937995447, 35.7926003421041], [51.3936202007661, 35.7908928120739], [51.3922133850073, 35.7897687901016], [51.3901167860411, 35.7922099543856], [51.3900951221027, 35.7933399326204], [51.3866678194754, 35.7930715020127], [51.3879904238226, 35.7960870331572], [51.3873939728466, 35.7994964928152], [51.3879630990308, 35.800673530341], [51.3829157841236, 35.8015921731531], [51.3808111272502, 35.8037879857867], [51.3768274379549, 35.8053105672038], [51.3752453650941, 35.8065363056797], [51.3821292102406, 35.8106505198825], [51.3831341565862, 35.8121734206043], [51.3850166980948, 35.8082907706371], [51.3876177494288, 35.8084623813192], [51.3880484275658, 35.8108091150139], [51.3920096277575, 35.8121029060164], [51.3927336000901, 35.8129364960209], [51.3997953442913, 35.8135498378851], [51.4019131184988, 35.8134121590015], [51.4032953377862, 35.8163591491761], [51.4050175868687, 35.8153607293363], [51.4118098724389, 35.8161528437536], [51.4130922606727, 35.8175388973963], [51.4164058122998, 35.816324702886], [51.4178440712537, 35.8165564066047], [51.4199130977167, 35.818871588972], [51.4204622128535, 35.8206202897688], [51.423214851593, 35.8209038072971], [51.423801043158, 35.8236602026803], [51.4255621825591, 35.8271337403869], [51.430680676372, 35.8232140954213], [51.4324678606049, 35.8227848076239], [51.4347012037754, 35.8246578419225], [51.4361817782477, 35.8238469558559], [51.4356894946778, 35.821376059988], [51.4368506315532, 35.8200161802104], [51.4431241604995, 35.8192105264459], [51.446716442202, 35.8191992135594], [51.4485289084952, 35.8174725211122], [51.4565077187799, 35.8201861061944], [51.4579215150573, 35.8224490341306], [51.4598399586056, 35.8238236195675], [51.4630232027576, 35.8245120153912], [51.462514566834, 35.8280762540862], [51.4643007921873, 35.8273817715823], [51.4679644122244, 35.8274208520258], [51.4689623161401, 35.8237545210223], [51.4727819646217, 35.821216158267], [51.474778968338, 35.820743818125], [51.4770593248563, 35.8215985565392], [51.4812240676158, 35.8204029278989], [51.4841759679881, 35.8187822249948], [51.4877357708705, 35.8191417596786], [51.4907748931199, 35.8225478888075], [51.4917769437246, 35.8210869256046], [51.4956943833926, 35.8176488883491], [51.4973346759808, 35.8172487013339], [51.4986979716153, 35.8146376671069], [51.5007099822807, 35.8160363578063], [51.5047952237374, 35.8160203537053], [51.5055965414032, 35.8145347374328], [51.5074697364133, 35.8154049186987], [51.5065474395109, 35.81694569913], [51.5080801512882, 35.8186945680082], [51.5101365213932, 35.8176227588203], [51.5116494975895, 35.8141032212537], [51.514735225143, 35.81405876196], [51.5154877715918, 35.8121320404502], [51.5199552507513, 35.812847253349], [51.5203291556077, 35.8112000144284], [51.5233960929242, 35.8081425837431], [51.5269734725193, 35.8117988912085], [51.5276630636881, 35.8131477085765], [51.5311985710658, 35.8161330598512], [51.5347050081788, 35.8166044828673], [51.5339217856348, 35.8148398084768], [51.532298256625, 35.814087852138], [51.5313772416931, 35.8119619395174], [51.5331720772526, 35.8092241844677], [51.5372643484517, 35.8084397954241], [51.5369284772201, 35.8070760337321], [51.5381471057574, 35.8055346032284], [51.5381166642169, 35.802438060076], [51.536386306351, 35.8005191601009], [51.5373185027807, 35.7989014449334], [51.5372556073134, 35.7969006978056], [51.5354043017459, 35.7945243673677], [51.5382640995544, 35.7939330863205], [51.5379194667899, 35.7928629103081], [51.5338400397342, 35.7921046844256], [51.5303894222139, 35.7923146096455], [51.5284021874392, 35.7872611329196], [51.5274271131606, 35.7772872407199]]]]}}, {"type": "Feature", "properties": {"OBJECTID": 2, "reg_no": 2, "RegionID": 1, "Shape_Leng": 37529.28845, "Shape_Area": 47031112.95}, "geometry": {"type": "MultiPolygon", "coordinates": [[[[51.3829157841236, 35.8015921731531], [51.3879630990308, 35.800673530341], [51.3873939728466, 35.7994964928152], [51.3879904238226, 35.7960870331572], [51.3866678194754, 35.7930715020127], [51.3900951221027, 35.7933399326204], [51.3901167860411, 35.7922099543856], [51.3922133850073, 35.7897687901016], [51.3918818215376, 35.787737683047], [51.3930377652306, 35.7825268746194], [51.3928218154999, 35.7797233598867], [51.3886660353448, 35.7733299410545], [51.3876222821059, 35.7712321694904], [51.3873670455097, 35.7685165836969], [51.3886714774962, 35.7607593176065], [51.3884308322323, 35.7592476208695], [51.3863319161769, 35.7546596121562], [51.3860644476191, 35.7503298600226], [51.3856484797214, 35.7467792551052], [51.3835779436746, 35.7411802826113], [51.3832983188107, 35.7294710127904], [51.3824842999736, 35.7266588078641], [51.3793754209083, 35.7218276201008], [51.3780434826003, 35.717320955392], [51.3777741957544, 35.7063883475319], [51.3780375337363, 35.7006563826901], [51.3550703905385, 35.7001324748435], [51.3423085177207, 35.6998331808825], [51.3396313096534, 35.701712112866], [51.3377858163732, 35.70207463083], [51.3363540992178, 35.7126064447914], [51.3355507553037, 35.7203976163465], [51.3346547884729, 35.7266478744307], [51.3317221601039, 35.7499202743255], [51.3319043421148, 35.7513092693368], [51.3369010143596, 35.7645619592458], [51.3374428759901, 35.7693325916986], [51.3365655788344, 35.7727632339835], [51.3359557786817, 35.77817446834], [51.3388364617293, 35.779571385097], [51.3399023106134, 35.781363868109], [51.3422663861399, 35.7837731933741], [51.3425847114366, 35.7855798183915], [51.3411910229236, 35.7869347578108], [51.3402452152086, 35.7913091359242], [51.3411988746975, 35.7958326581087], [51.3408355717638, 35.7985246423885], [51.3416931361576, 35.7994659317018], [51.3401402651943, 35.8039661291358], [51.3408094603322, 35.8055567505177], [51.3414248636199, 35.8006397890248], [51.3428986139006, 35.7985837146491], [51.3429203484037, 35.7968346456647], [51.345566041827, 35.7951236313684], [51.3452071320421, 35.7931516487169], [51.3485097960635, 35.793169833705], [51.3496052680456, 35.7943012504907], [51.3525592510201, 35.7953727892582], [51.3552153314449, 35.7949888088233], [51.3586586504181, 35.7984269250066], [51.3596098522392, 35.8015300877204], [51.3596584787246, 35.8036444900235], [51.3616058298861, 35.8037062448307], [51.3624664471585, 35.8009524169483], [51.3681527497672, 35.7961679842681], [51.3718315061442, 35.7945814856989], [51.3730759320442, 35.7952309766498], [51.3756834366955, 35.793046489605], [51.379047605356, 35.7941874379596], [51.3793209913195, 35.7929339202177], [51.3833679098031, 35.793274967258], [51.3846869852315, 35.794747809923], [51.3860985620825, 35.7986969329998], [51.3859968939726, 35.7997727023078], [51.3829157841236, 35.8015921731531]]]]}}, {"type": "Feature", "properties": {"OBJECTID": 3, "reg_no": 3, "RegionID": 1, "Shape_Leng": 26541.06722, "Shape_Area": 29352772.12}, "geometry": {"type": "MultiPolygon", "coordinates": [[[[51.4765323405796, 35.7902465898074], [51.473093119883, 35.78686396173], [51.4704523030078, 35.7859965985231], [51.4659926874307, 35.7772759095313], [51.4559184034554, 35.7656863600393], [51.4551992790615, 35.7630168601297], [51.4537792452788, 35.7601376779847], [51.4522103958345, 35.7537067634746], [51.4490399983953, 35.7511988286671], [51.4494829369884, 35.7478279888558], [51.4471495844249, 35.7433407367423], [51.4469094492493, 35.7419563084583], [51.4436292624917, 35.7426107404833], [51.4370459826528, 35.7426653104123], [51.4324926020714, 35.7410738973022], [51.4295048678782, 35.7404495613487], [51.4226488913624, 35.7402169490682], [51.4223262789254, 35.7451350484949], [51.4225968073999, 35.7469442157236], [51.4214301630179, 35.7507126459134], [51.414948854056, 35.7522132281576], [51.4087589945063, 35.7513655246321], [51.3971739926226, 35.7511326717531], [51.3860644476191, 35.7503298600226], [51.3863319161769, 35.7546596121562], [51.3884308322323, 35.7592476208695], [51.3886714774962, 35.7607593176065], [51.3873670455097, 35.7685165836969], [51.3876222821059, 35.7712321694904], [51.3886660353448, 35.7733299410545], [51.3928218154999, 35.7797233598867], [51.3930377652306, 35.7825268746194], [51.3918818215376, 35.787737683047], [51.3922133850073, 35.7897687901016], [51.3936202007661, 35.7908928120739], [51.3992937995447, 35.7926003421041], [51.4015150113964, 35.7936198915879], [51.4038405981294, 35.7935892923286], [51.4072975490354, 35.7918525656078], [51.4105467617762, 35.7919676889508], [51.4162479795896, 35.7908999169911], [51.4186813805859, 35.7900252325422], [51.4206648808666, 35.7882489377765], [51.4222442107221, 35.785252642986], [51.425605701598, 35.7817015771302], [51.4278288601819, 35.7785223320824], [51.433044038526, 35.7809229810117], [51.4346282532471, 35.782766035502], [51.4375556012151, 35.7843411864886], [51.4436362303353, 35.7856238869743], [51.4489106693163, 35.7873581617245], [51.4527760051994, 35.7891924853002], [51.4582466490862, 35.7924492688675], [51.4615077642298, 35.793191449065], [51.4695724458631, 35.7914695005215], [51.4733900528445, 35.790379457772], [51.4765323405796, 35.7902465898074]]]]}}, {"type": "Feature", "properties": {"OBJECTID": 4, "reg_no": 4, "RegionID": 4, "Shape_Leng": 35606.9315, "Shape_Area": 61327316.87}, "geometry": {"type": "MultiPolygon", "coordinates": [[[[51.5274271131606, 35.7772872407199], [51.5362777190672, 35.7765449642333], [51.543721622728, 35.7746432999157], [51.5572080664423, 35.7698854950118], [51.5599997054564, 35.7684477161877], [51.5677186886326, 35.7634697737098], [51.5739593154428, 35.7586133552903], [51.5753113785571, 35.7572004648912], [51.5776961231919, 35.7532855767365], [51.579886849614, 35.7516257984583], [51.5866749688375, 35.7486566791614], [51.5883773378278, 35.7482035071823], [51.5945243247563, 35.747829589443], [51.5997578779953, 35.745681566381], [51.6060783395989, 35.7439111723611], [51.6047670945472, 35.7403910461194], [51.6015149199341, 35.7360923871417], [51.5959052038689, 35.7322801271093], [51.5919038016588, 35.7288158397311], [51.589163314983, 35.7268929700924], [51.5879571146573, 35.7253169769437], [51.5839050412883, 35.7237228063802], [51.574864054331, 35.7239188532929], [51.5664447035046, 35.7250299669184], [51.5627490429701, 35.7259733237411], [51.5575290924346, 35.7261831626989], [51.5385158723367, 35.7248754024982], [51.5382103509913, 35.7277762296525], [51.537397260491, 35.7292841307199], [51.5351220202545, 35.7304025450265], [51.4937134254085, 35.7358351405049], [51.4815049993397, 35.7377507978907], [51.4714744223323, 35.7396774280669], [51.4667033443958, 35.740351050731], [51.46430235301, 35.7404602620049], [51.4490497407063, 35.741868540766], [51.4469094492493, 35.7419563084583], [51.4471495844249, 35.7433407367423], [51.4494829369884, 35.7478279888558], [51.4490399983953, 35.7511988286671], [51.4522103958345, 35.7537067634746], [51.4537792452788, 35.7601376779847], [51.4551992790615, 35.7630168601297], [51.4559184034554, 35.7656863600393], [51.4659926874307, 35.7772759095313], [51.4704523030078, 35.7859965985231], [51.473093119883, 35.78686396173], [51.4765323405796, 35.7902465898074], [51.4811455586154, 35.7899538570978], [51.4902654740055, 35.7860280458345], [51.4936682521441, 35.7856396263475], [51.5004344968932, 35.7861320706065], [51.5081408953712, 35.7840605685712], [51.5132271028298, 35.7824770097838], [51.5186761606204, 35.7789035189089], [51.5223418035573, 35.7776175468731], [51.5274271131606, 35.7772872407199]]]]}}, {"type": "Feature", "properties": {"OBJECTID": 5, "reg_no": 5, "RegionID": 1, "Shape_Leng": 44975.20366, "Shape_Area": 53151970.32}, "geometry": {"type": "MultiPolygon", "coordinates": [[[[51.3377858163732, 35.70207463083], [51.3353503451805, 35.7014854876093], [51.3336565157976, 35.6996287477398], [51.301493106394, 35.6988536821666], [51.2899570957568, 35.7009011429991], [51.2911300119794, 35.7163015750424], [51.2888429566188, 35.720208034872], [51.2845787520142, 35.7253733918073], [51.283673900614, 35.7278716774967], [51.2807417730091, 35.7299843843598], [51.2794660877835, 35.731556697599], [51.2770589730031, 35.7325808894093], [51.2735095647338, 35.7355389242], [51.272763011815, 35.7374030977866], [51.2691235597639, 35.7395397934232], [51.2691947035819, 35.741580537457], [51.2680954853681, 35.7434483101513], [51.2681529763689, 35.7451459471769], [51.2671129911632, 35.7473634100711], [51.2679504338968, 35.7497805816371], [51.2692459058961, 35.7508506310875], [51.2702658412374, 35.7531044719271], [51.2696722599146, 35.7555045488479], [51.2686203252385, 35.756815773186], [51.2669705819605, 35.7608783026825], [51.2664576193718, 35.7637994711044], [51.2634627575748, 35.7674582006987], [51.2628483184557, 35.7694563162194], [51.2644749636842, 35.7704547209439], [51.2647976149705, 35.772735591988], [51.2662696664061, 35.7753788520492], [51.2643476543163, 35.7772037001508], [51.2648625261734, 35.7790645630265], [51.2630546092507, 35.7795721336124], [51.2624509892863, 35.7822450763295], [51.26574128855, 35.7826402236435], [51.2679684617369, 35.7838894447338], [51.2691989334147, 35.7825164987297], [51.2725454810723, 35.7825924511157], [51.2741845512072, 35.7799192869073], [51.2759114618577, 35.78015697253], [51.2772582120588, 35.7815139749665], [51.277660146779, 35.783439727444], [51.2801235136652, 35.7826943224365], [51.2818030886765, 35.7804083884528], [51.2857217364807, 35.7814792873204], [51.2860470519291, 35.779906172164], [51.2887124893281, 35.7798946634005], [51.2895557328421, 35.7812997100572], [51.2896131935401, 35.7835049282976], [51.2934260528951, 35.7834683912551], [51.2933154575521, 35.7817873039164], [51.3013450341414, 35.782562451939], [51.3039663054311, 35.7824994627837], [51.3039880296382, 35.7844272580572], [51.3020292620603, 35.7889290612353], [51.3030915536287, 35.7914421868091], [51.3031533793339, 35.794521171309], [51.3051437276202, 35.7945161357543], [51.3073968955571, 35.7924881274571], [51.3064437337407, 35.7905920896066], [51.3090601306494, 35.7876554825001], [51.3135192430292, 35.7870235329267], [51.3145487731473, 35.7883760480084], [51.3171789464521, 35.7874999440263], [51.31916559544, 35.7881571649398], [51.3225455756131, 35.7882495786185], [51.3220022484787, 35.7893981950577], [51.3245311953714, 35.7910185262314], [51.3264163043978, 35.7935037008788], [51.3306649732757, 35.7931837376577], [51.3326294839666, 35.79190586083], [51.3344230411976, 35.7934470752589], [51.3358633004175, 35.7935404358727], [51.3356215846637, 35.7981929300871], [51.338402850514, 35.8025441036452], [51.3371256120282, 35.8038640268612], [51.33793716234, 35.8049107594535], [51.3371966734806, 35.8084962015537], [51.3385325415104, 35.8089244287361], [51.3405930991322, 35.8070391583322], [51.3408094603322, 35.8055567505177], [51.3401402651943, 35.8039661291358], [51.3416931361576, 35.7994659317018], [51.3408355717638, 35.7985246423885], [51.3411988746975, 35.7958326581087], [51.3402452152086, 35.7913091359242], [51.3411910229236, 35.7869347578108], [51.3425847114366, 35.7855798183915], [51.3422663861399, 35.7837731933741], [51.3399023106134, 35.781363868109], [51.3388364617293, 35.779571385097], [51.3359557786817, 35.77817446834], [51.3365655788344, 35.7727632339835], [51.3374428759901, 35.7693325916986], [51.3369010143596, 35.7645619592458], [51.3319043421148, 35.7513092693368], [51.3317221601039, 35.7499202743255], [51.3346547884729, 35.7266478744307], [51.3355507553037, 35.7203976163465], [51.3363540992178, 35.7126064447914], [51.3377858163732, 35.70207463083]]]]}}, {"type": "Feature", "properties": {"OBJECTID": 6, "reg_no": 6, "RegionID": 3, "Shape_Leng": 18954.17862, "Shape_Area": 21449517.93}, "geometry": {"type": "MultiPolygon", "coordinates": [[[[51.3780375337363, 35.7006563826901], [51.3777741957544, 35.7063883475319], [51.3780434826003, 35.717320955392], [51.3793754209083, 35.7218276201008], [51.3824842999736, 35.7266588078641], [51.3832983188107, 35.7294710127904], [51.3835779436746, 35.7411802826113], [51.3856484797214, 35.7467792551052], [51.3860644476191, 35.7503298600226], [51.3971739926226, 35.7511326717531], [51.4087589945063, 35.7513655246321], [51.414948854056, 35.7522132281576], [51.4214301630179, 35.7507126459134], [51.4225968073999, 35.7469442157236], [51.4223262789254, 35.7451350484949], [51.4226488913624, 35.7402169490682], [51.4216421555981, 35.7350948707655], [51.4204703348075, 35.7327252590116], [51.421349800509, 35.7293482039286], [51.424543648197, 35.7255697978849], [51.4253565546438, 35.7223020421533], [51.4276036834064, 35.7187618427145], [51.4259025873215, 35.7154979535231], [51.425556189372, 35.7087348822697], [51.4260398673195, 35.701656764688], [51.4127787107563, 35.7013834337678], [51.3780375337363, 35.7006563826901]]]]}}, {"type": "Feature", "properties": {"OBJECTID": 7, "reg_no": 7, "RegionID": 3, "Shape_Leng": 17034.83991, "Shape_Area": 15361818.18}, "geometry": {"type": "MultiPolygon", "coordinates": [[[[51.4469094492493, 35.7419563084583], [51.4490497407063, 35.741868540766], [51.46430235301, 35.7404602620049], [51.4667033443958, 35.740351050731], [51.4653017045443, 35.7381686202342], [51.4585412325712, 35.7303960590076], [51.4582454166773, 35.7280597938528], [51.4659981277632, 35.7156614321294], [51.4722070935001, 35.7090030524782], [51.4618533023042, 35.7059002804458], [51.4487670592493, 35.702149464913], [51.4481414011051, 35.7015080498979], [51.4475250506164, 35.7019732211904], [51.4260398673195, 35.701656764688], [51.425556189372, 35.7087348822697], [51.4259025873215, 35.7154979535231], [51.4276036834064, 35.7187618427145], [51.4253565546438, 35.7223020421533], [51.424543648197, 35.7255697978849], [51.421349800509, 35.7293482039286], [51.4204703348075, 35.7327252590116], [51.4216421555981, 35.7350948707655], [51.4226488913624, 35.7402169490682], [51.4295048678782, 35.7404495613487], [51.4324926020714, 35.7410738973022], [51.4370459826528, 35.7426653104123], [51.4436292624917, 35.7426107404833], [51.4469094492493, 35.7419563084583]]]]}}, {"type": "Feature", "properties": {"OBJECTID": 8, "reg_no": 8, "RegionID": 4, "Shape_Leng": 17405.98897, "Shape_Area": 13213654.98}, "geometry": {"type": "MultiPolygon", "coordinates": [[[[51.4722070935001, 35.7090030524782], [51.4659981277632, 35.7156614321294], [51.4582454166773, 35.7280597938528], [51.4585412325712, 35.7303960590076], [51.4653017045443, 35.7381686202342], [51.4667033443958, 35.740351050731], [51.4714744223323, 35.7396774280669], [51.4815049993397, 35.7377507978907], [51.4937134254085, 35.7358351405049], [51.5351220202545, 35.7304025450265], [51.537397260491, 35.7292841307199], [51.5382103509913, 35.7277762296525], [51.5385158723367, 35.7248754024982], [51.5209093101569, 35.7236767947957], [51.5182798813251, 35.7232637295466], [51.510789307083, 35.7208955427572], [51.4722070935001, 35.7090030524782]]]]}}, {"type": "Feature", "properties": {"OBJECTID": 9, "reg_no": 9, "RegionID": 2, "Shape_Leng": 19945.48114, "Shape_Area": 19681229.97}, "geometry": {"type": "MultiPolygon", "coordinates": [[[[51.3550703905385, 35.7001324748435], [51.3552938507467, 35.695955838759], [51.3565147267895, 35.6943800019046], [51.3551676386529, 35.6889535721674], [51.3541187248946, 35.6828603398558], [51.3548305453021, 35.6760981302215], [51.3521150691801, 35.6709559205741], [51.3525988659291, 35.6707761039686], [51.3445932872056, 35.6669895629626], [51.3403661552975, 35.6665490670717], [51.3122372577709, 35.6713911775439], [51.3091955034454, 35.6724506990284], [51.3094741776369, 35.6754502389268], [51.2877744506365, 35.67641005042], [51.2783621181026, 35.676677620364], [51.278716649646, 35.6780274083647], [51.283769010589, 35.6840091136647], [51.2838970646349, 35.6847915384095], [51.2849535359119, 35.6858111990118], [51.2866401221428, 35.6867741279724], [51.2874604764813, 35.6877859662701], [51.2876329829559, 35.6889568265829], [51.2880064774314, 35.6901599009092], [51.2880945091732, 35.691775489079], [51.2894513159513, 35.6935330285051], [51.289949008196, 35.6960128948663], [51.2899570957568, 35.7009011429991], [51.301493106394, 35.6988536821666], [51.3336565157976, 35.6996287477398], [51.3353503451805, 35.7014854876093], [51.3377858163732, 35.70207463083], [51.3396313096534, 35.701712112866], [51.3423085177207, 35.6998331808825], [51.3550703905385, 35.7001324748435]]]]}}, {"type": "Feature", "properties": {"OBJECTID": 10, "reg_no": 10, "RegionID": 3, "Shape_Leng": 11634.90385, "Shape_Area": 8076858.867}, "geometry": {"type": "MultiPolygon", "coordinates": [[[[51.3815333811642, 35.6708951789621], [51.3756443975639, 35.6684485249972], [51.3710345317693, 35.667298744113], [51.3679525455313, 35.66709240748], [51.363119947058, 35.6677609717837], [51.3570448138106, 35.6691284145119], [51.3525988659291, 35.6707761039686], [51.3521150691801, 35.6709559205741], [51.3548305453021, 35.6760981302215], [51.3541187248946, 35.6828603398558], [51.3551676386529, 35.6889535721674], [51.3565147267895, 35.6943800019046], [51.3552938507467, 35.695955838759], [51.3550703905385, 35.7001324748435], [51.3780375337363, 35.7006563826901], [51.3795804120555, 35.6873848836374], [51.3800035873937, 35.6819781540124], [51.3815333811642, 35.6708951789621]]]]}}, {"type": "Feature", "properties": {"OBJECTID": 11, "reg_no": 11, "RegionID": 3, "Shape_Leng": 14984.61951, "Shape_Area": 12024059.55}, "geometry": {"type": "MultiPolygon", "coordinates": [[[[51.4048027080587, 35.6584849164668], [51.3935319830772, 35.6597579556307], [51.3932481196453, 35.658536209308], [51.3821841378959, 35.6597283666947], [51.3815333811642, 35.6708951789621], [51.3800035873937, 35.6819781540124], [51.3795804120555, 35.6873848836374], [51.3780375337363, 35.7006563826901], [51.4127787107563, 35.7013834337678], [51.4127364710858, 35.6999753675346], [51.4102035770802, 35.6865433191103], [51.4077869583388, 35.6745569594222], [51.4048027080587, 35.6584849164668]]]]}}, {"type": "Feature", "properties": {"OBJECTID": 12, "reg_no": 12, "RegionID": 3, "Shape_Leng": 16295.0189, "Shape_Area": 16005258.61}, "geometry": {"type": "MultiPolygon", "coordinates": [[[[51.4481414011051, 35.7015080498979], [51.4472919677751, 35.6896179381721], [51.445588710285, 35.6653780682324], [51.4452332658557, 35.6608046869924], [51.4401759691787, 35.6604213893631], [51.4352177354298, 35.6596355109207], [51.4308210096298, 35.6597268838709], [51.4127750613131, 35.6586078565088], [51.408024318546, 35.6581419402812], [51.4048027080587, 35.6584849164668], [51.4077869583388, 35.6745569594222], [51.4102035770802, 35.6865433191103], [51.4127364710858, 35.6999753675346], [51.4127787107563, 35.7013834337678], [51.4260398673195, 35.701656764688], [51.4475250506164, 35.7019732211904], [51.4481414011051, 35.7015080498979]]]]}}, {"type": "Feature", "properties": {"OBJECTID": 13, "reg_no": 13, "RegionID": 4, "Shape_Leng": 34166.43338, "Shape_Area": 16903823.08}, "geometry": {"type": "MultiPolygon", "coordinates": [[[[51.5839050412883, 35.7237228063802], [51.595248611089, 35.7236628666152], [51.5952409894337, 35.7226382902339], [51.5918681077781, 35.7196298769912], [51.5885716659484, 35.7195578625659], [51.5842388496399, 35.7182321623991], [51.5826512018099, 35.7183629274423], [51.57999214343, 35.7170395819266], [51.5780312434097, 35.7167486490973], [51.5732252008374, 35.717360714124], [51.5719951561269, 35.7151355953538], [51.5692007147173, 35.7157441889324], [51.5690277234959, 35.7177311168885], [51.5656851216123, 35.7170085492855], [51.5642254602317, 35.7153665431858], [51.5605813217123, 35.7182248985903], [51.5564466559991, 35.718671861027], [51.5547995206616, 35.7177879517054], [51.5505091995958, 35.7184385787808], [51.5482979299376, 35.7176661224451], [51.5454370089305, 35.717694295649], [51.5418853243772, 35.7151851981212], [51.5395020008167, 35.7160837417027], [51.5394851486864, 35.7177787759764], [51.5373107230184, 35.7182629728925], [51.5342632229137, 35.7166722690477], [51.5332411127079, 35.7184227320373], [51.5305104601142, 35.7170891351916], [51.5276670839007, 35.7176969697044], [51.5270526057545, 35.7160831529516], [51.5250713757988, 35.7172265822374], [51.5223761003867, 35.7175862361735], [51.5191123853556, 35.7173380769083], [51.5182276666532, 35.7185623015826], [51.5154100324061, 35.7182800043976], [51.5118959544662, 35.7161866236201], [51.5109229523696, 35.7122489276026], [51.5125412682195, 35.7083548647073], [51.5123673501911, 35.7067094149913], [51.5108212926966, 35.7054646183723], [51.5050705232302, 35.7025200081642], [51.5019980650622, 35.7018445585981], [51.4944515860505, 35.6930964885351], [51.4617558321716, 35.6905680296478], [51.4472919677751, 35.6896179381721], [51.4481414011051, 35.7015080498979], [51.4487670592493, 35.702149464913], [51.4618533023042, 35.7059002804458], [51.4722070935001, 35.7090030524782], [51.510789307083, 35.7208955427572], [51.5182798813251, 35.7232637295466], [51.5209093101569, 35.7236767947957], [51.5385158723367, 35.7248754024982], [51.5575290924346, 35.7261831626989], [51.5627490429701, 35.7259733237411], [51.5664447035046, 35.7250299669184], [51.574864054331, 35.7239188532929], [51.5839050412883, 35.7237228063802]]]]}}, {"type": "Feature", "properties": {"OBJECTID": 14, "reg_no": 14, "RegionID": 4, "Shape_Leng": 20511.83731, "Shape_Area": 21990062.48}, "geometry": {"type": "MultiPolygon", "coordinates": [[[[51.5017164391463, 35.6602774893886], [51.4907068052, 35.6628632924037], [51.4890127067173, 35.6580084649926], [51.4876829314635, 35.6563072418904], [51.4697790592838, 35.6588646744245], [51.4651152286981, 35.659880072594], [51.4613850874875, 35.6587537066916], [51.4567677360171, 35.6603647062508], [51.4502761403184, 35.6647535442467], [51.445588710285, 35.6653780682324], [51.4472919677751, 35.6896179381721], [51.4617558321716, 35.6905680296478], [51.4944515860505, 35.6930964885351], [51.4991622429504, 35.6920229161772], [51.5053490975162, 35.6911528171559], [51.5057173798846, 35.6901929284549], [51.5105403182461, 35.6853351466369], [51.5191071395129, 35.6771507484673], [51.5141586078538, 35.6737740605667], [51.5141539786168, 35.6730522771896], [51.5231814872587, 35.6689840462539], [51.5183022796586, 35.6634176789726], [51.5175710995923, 35.6616838363774], [51.5166037358724, 35.6566408072982], [51.5017164391463, 35.6602774893886]]]]}}, {"type": "Feature", "properties": {"OBJECTID": 15, "reg_no": 15, "RegionID": 4, "Shape_Leng": 28333.80288, "Shape_Area": 31030875.51}, "geometry": {"type": "MultiPolygon", "coordinates": [[[[51.5017164391463, 35.6602774893886], [51.4973841647852, 35.6477499031967], [51.4971456619232, 35.6466336800603], [51.4988181276652, 35.6449756755712], [51.5062874624074, 35.6442833222261], [51.5061598244428, 35.6375434278028], [51.507923858308, 35.637941297411], [51.5075238303075, 35.628572401405], [51.5032923374381, 35.6212563858411], [51.5029404536737, 35.6178427194314], [51.5037742533432, 35.6163749355067], [51.5109490780587, 35.6092709543627], [51.5166717283363, 35.6024123368934], [51.5172121039376, 35.5989641936918], [51.5151644973396, 35.5976520627892], [51.5101794823403, 35.5988218790345], [51.5005662580014, 35.6043630497861], [51.4950556767045, 35.6070709814227], [51.480138138381, 35.614016189726], [51.4777949089364, 35.6127223805814], [51.4732880337877, 35.6176816551293], [51.4643642950242, 35.6220975471833], [51.4596558169381, 35.6242025023705], [51.4543700982766, 35.6249411399742], [51.4366892682038, 35.6247872363639], [51.4363543349997, 35.6274248091742], [51.434250926331, 35.6455230631915], [51.4334139202982, 35.651025423677], [51.4308210096298, 35.6597268838709], [51.4352177354298, 35.6596355109207], [51.4401759691787, 35.6604213893631], [51.4452332658557, 35.6608046869924], [51.445588710285, 35.6653780682324], [51.4502761403184, 35.6647535442467], [51.4567677360171, 35.6603647062508], [51.4613850874875, 35.6587537066916], [51.4651152286981, 35.659880072594], [51.4697790592838, 35.6588646744245], [51.4876829314635, 35.6563072418904], [51.4890127067173, 35.6580084649926], [51.4907068052, 35.6628632924037], [51.5017164391463, 35.6602774893886]]]]}}, {"type": "Feature", "properties": {"OBJECTID": 16, "reg_no": 16, "RegionID": 5, "Shape_Leng": 17539.13842, "Shape_Area": 16512870.5}, "geometry": {"type": "MultiPolygon", "coordinates": [[[[51.4363543349997, 35.6274248091742], [51.4329044411611, 35.6261442825764], [51.428513389108, 35.6239247857496], [51.4248836066491, 35.6213688820198], [51.4210122874681, 35.6181561550773], [51.4163197109286, 35.6157896515063], [51.4088995401213, 35.6144738191135], [51.4033038445177, 35.614436033076], [51.4048296512353, 35.6199311514914], [51.3931202372647, 35.6371476424176], [51.3910530845378, 35.6396413618572], [51.3930586354726, 35.6438653230289], [51.3925188297834, 35.6458351491782], [51.3894797427151, 35.6493235445065], [51.3862808332024, 35.6516794639088], [51.383693405323, 35.6529693260935], [51.3824104932989, 35.6544036779631], [51.3822618867498, 35.6561859611988], [51.3821841378959, 35.6597283666947], [51.3932481196453, 35.658536209308], [51.3935319830772, 35.6597579556307], [51.4048027080587, 35.6584849164668], [51.408024318546, 35.6581419402812], [51.4127750613131, 35.6586078565088], [51.4308210096298, 35.6597268838709], [51.4334139202982, 35.651025423677], [51.434250926331, 35.6455230631915], [51.4363543349997, 35.6274248091742]]]]}}, {"type": "Feature", "properties": {"OBJECTID": 17, "reg_no": 17, "RegionID": 5, "Shape_Leng": 12346.91881, "Shape_Area": 8243766.03}, "geometry": {"type": "MultiPolygon", "coordinates": [[[[51.3821841378959, 35.6597283666947], [51.3822618867498, 35.6561859611988], [51.3805720641741, 35.654556558915], [51.3765584855155, 35.6537849284216], [51.3729963323512, 35.651647066069], [51.3728638020841, 35.6515155438784], [51.3717098678793, 35.6500426740333], [51.3691924838364, 35.6446272244754], [51.3648684371354, 35.6409837006894], [51.3620328081561, 35.6394271926713], [51.3563077270531, 35.637142264927], [51.3542406590452, 35.6368324400078], [51.3531115138291, 35.6413211214538], [51.3495002826818, 35.6500986234095], [51.3439549674766, 35.6637390084229], [51.3438546297552, 35.6641474672634], [51.3445932872056, 35.6669895629626], [51.3525988659291, 35.6707761039686], [51.3570448138106, 35.6691284145119], [51.363119947058, 35.6677609717837], [51.3679525455313, 35.66709240748], [51.3710345317693, 35.667298744113], [51.3756443975639, 35.6684485249972], [51.3815333811642, 35.6708951789621], [51.3821841378959, 35.6597283666947]]]]}}, {"type": "Feature", "properties": {"OBJECTID": 18, "reg_no": 18, "RegionID": 5, "Shape_Leng": 29097.33076, "Shape_Area": 37348003.75}, "geometry": {"type": "MultiPolygon", "coordinates": [[[[51.3445932872056, 35.6669895629626], [51.3438546297552, 35.6641474672634], [51.3439549674766, 35.6637390084229], [51.3495002826818, 35.6500986234095], [51.3531115138291, 35.6413211214538], [51.3542406590452, 35.6368324400078], [51.3467023808832, 35.633484560311], [51.3344061941748, 35.6271794050975], [51.3254423162391, 35.6203857946205], [51.319886467752, 35.6267717976458], [51.3169765002711, 35.6291779573363], [51.3136612470889, 35.6312703377196], [51.2979546885347, 35.63927029436], [51.284094787941, 35.6457948096016], [51.2699549950394, 35.6516554673269], [51.2475992649316, 35.6598911450696], [51.2405991080814, 35.662553188341], [51.2365520303988, 35.6650448768463], [51.2338013473419, 35.6680211533503], [51.2317355242144, 35.6717851727448], [51.2310305858357, 35.6754783871107], [51.2314213074095, 35.6789178464096], [51.233311706753, 35.6835142676444], [51.2374799086163, 35.682139326053], [51.2446683719868, 35.6809837305887], [51.2699574631792, 35.6772020349566], [51.2783621181026, 35.676677620364], [51.2877744506365, 35.67641005042], [51.3094741776369, 35.6754502389268], [51.3091955034454, 35.6724506990284], [51.3122372577709, 35.6713911775439], [51.3403661552975, 35.6665490670717], [51.3445932872056, 35.6669895629626]]]]}}, {"type": "Feature", "properties": {"OBJECTID": 19, "reg_no": 19, "RegionID": 5, "Shape_Leng": 22328.1635, "Shape_Area": 21652665.02}, "geometry": {"type": "MultiPolygon", "coordinates": [[[[51.3254423162391, 35.6203857946205], [51.3344061941748, 35.6271794050975], [51.3467023808832, 35.633484560311], [51.3542406590452, 35.6368324400078], [51.3563077270531, 35.637142264927], [51.3620328081561, 35.6394271926713], [51.3648684371354, 35.6409837006894], [51.3691924838364, 35.6446272244754], [51.3717098678793, 35.6500426740333], [51.3728638020841, 35.6515155438784], [51.3729963323512, 35.651647066069], [51.3765584855155, 35.6537849284216], [51.3805720641741, 35.654556558915], [51.3822618867498, 35.6561859611988], [51.3824104932989, 35.6544036779631], [51.383693405323, 35.6529693260935], [51.3862808332024, 35.6516794639088], [51.3894797427151, 35.6493235445065], [51.3925188297834, 35.6458351491782], [51.3930586354726, 35.6438653230289], [51.3910530845378, 35.6396413618572], [51.3931202372647, 35.6371476424176], [51.4048296512353, 35.6199311514914], [51.4033038445177, 35.614436033076], [51.4001670371562, 35.6143983682289], [51.3782875796683, 35.6143323554365], [51.3832172056772, 35.6106093892345], [51.3841166083441, 35.6078591732226], [51.382823286404, 35.6052497839931], [51.3808225805871, 35.6038193158001], [51.3757954349734, 35.6031620763701], [51.3729411835436, 35.6046817444045], [51.3699265271197, 35.605090916414], [51.3660273264684, 35.6121291096975], [51.3543808030174, 35.6088062622525], [51.3500820111371, 35.6080543209453], [51.3461534174579, 35.6079756859855], [51.3404580035141, 35.6088651810144], [51.3361594139288, 35.61046250466], [51.3313631812868, 35.6136987298181], [51.3254423162391, 35.6203857946205]]]]}}, {"type": "Feature", "properties": {"OBJECTID": 20, "reg_no": 20, "RegionID": 5, "Shape_Leng": 27617.86451, "Shape_Area": 22358422.28}, "geometry": {"type": "MultiPolygon", "coordinates": [[[[51.4643642950242, 35.6220975471833], [51.4650195866466, 35.6214827933044], [51.4652120203408, 35.6162320862345], [51.4644112267364, 35.6145115089404], [51.4615111680658, 35.6125352855946], [51.4577920686949, 35.6110820800425], [51.4553572818318, 35.609161529454], [51.4558750334185, 35.6071791890828], [51.4543921761181, 35.5991849487749], [51.4546599710182, 35.5978371535324], [51.4583994134127, 35.5912203803841], [51.4612079579615, 35.5870361343339], [51.4632638954085, 35.5832544288987], [51.463432202147, 35.5820832630896], [51.4660046657833, 35.57709065859], [51.470468118862, 35.5709021208493], [51.4721612854832, 35.5692495074698], [51.4668881012092, 35.5682172864437], [51.4647629051341, 35.5724619704945], [51.4609994971775, 35.5738790263637], [51.4590301893897, 35.5756879176983], [51.4564281953197, 35.579278903559], [51.4508480819936, 35.5772663802782], [51.4513862953945, 35.5799819746843], [51.4508873692478, 35.5823551002874], [51.448777824002, 35.5819227694385], [51.4388538554283, 35.577381582926], [51.4333000048686, 35.5772792522875], [51.4305633016394, 35.5783737880185], [51.4283082759691, 35.5802807675139], [51.4268039512337, 35.5802049910575], [51.4254159369671, 35.5784869122281], [51.4261294986945, 35.5742520848139], [51.4223643821853, 35.5735473368826], [51.4230386986943, 35.572099754526], [51.4204149940784, 35.5715058099035], [51.4194966242202, 35.5739039152703], [51.4174490615376, 35.5754510702972], [51.4177100818762, 35.5791412800796], [51.4162724486814, 35.5829914616876], [51.4173216628306, 35.586679816744], [51.4174348659672, 35.5902568268518], [51.4157298649382, 35.5920734017102], [51.413166691351, 35.5976037115405], [51.4118378563166, 35.5994758417519], [51.4104824541294, 35.6027627265984], [51.4063473381664, 35.6051719706297], [51.4067884406246, 35.6069751210214], [51.4006172085945, 35.6080815430193], [51.4013971663513, 35.6092478972482], [51.4019917197576, 35.6125588788727], [51.4001670371562, 35.6143983682289], [51.4033038445177, 35.614436033076], [51.4088995401213, 35.6144738191135], [51.4163197109286, 35.6157896515063], [51.4210122874681, 35.6181561550773], [51.4248836066491, 35.6213688820198], [51.428513389108, 35.6239247857496], [51.4329044411611, 35.6261442825764], [51.4363543349997, 35.6274248091742], [51.4366892682038, 35.6247872363639], [51.4543700982766, 35.6249411399742], [51.4596558169381, 35.6242025023705], [51.4643642950242, 35.6220975471833]]]]}}, {"type": "Feature", "properties": {"OBJECTID": 21, "reg_no": 21, "RegionID": 2, "Shape_Leng": 43164.72701, "Shape_Area": 51458064.11}, "geometry": {"type": "MultiPolygon", "coordinates": [[[[51.2102978697762, 35.7200589190937], [51.2147974198539, 35.7191078794597], [51.2190155200652, 35.7184440500447], [51.2232415507841, 35.718096368682], [51.2311320957947, 35.7176760981694], [51.236598097001, 35.7168866444121], [51.2461238087433, 35.7149821324217], [51.2545510602178, 35.7145095481637], [51.2911300119794, 35.7163015750424], [51.2899570957568, 35.7009011429991], [51.289949008196, 35.6960128948663], [51.2894513159513, 35.6935330285051], [51.2880945091732, 35.691775489079], [51.2880064774314, 35.6901599009092], [51.2876329829559, 35.6889568265829], [51.2874604764813, 35.6877859662701], [51.2866401221428, 35.6867741279724], [51.2849535359119, 35.6858111990118], [51.2838970646349, 35.6847915384095], [51.283769010589, 35.6840091136647], [51.278716649646, 35.6780274083647], [51.2783621181026, 35.676677620364], [51.2699574631792, 35.6772020349566], [51.2446683719868, 35.6809837305887], [51.2374799086163, 35.682139326053], [51.233311706753, 35.6835142676444], [51.2302780193053, 35.6845786404806], [51.213035657531, 35.691699096384], [51.1908554578835, 35.7004799446015], [51.1838886861176, 35.7033356862839], [51.1807249189251, 35.7043750341226], [51.1648435631906, 35.7081126680301], [51.1472388273823, 35.713927849859], [51.1433248242809, 35.7153610777785], [51.1385631064611, 35.7179787718696], [51.1328063390714, 35.7224077855658], [51.1279819467914, 35.7269008116058], [51.1252869964036, 35.7309656012302], [51.1249480352457, 35.7321881926437], [51.1164378343541, 35.7364193980456], [51.1137546148612, 35.7374883590546], [51.1054509884741, 35.7398532143513], [51.1001940480109, 35.7404977221664], [51.0890098770302, 35.7428345647945], [51.0902764262877, 35.7455751971211], [51.0973551674227, 35.7440159887138], [51.1154172611141, 35.7418615719277], [51.1211805617784, 35.7420131029486], [51.1318346447657, 35.7443318082887], [51.1378514997253, 35.7448467488685], [51.1421081761529, 35.7447005104854], [51.1486627559728, 35.7435552711887], [51.1518751124936, 35.7425468408214], [51.1789090670783, 35.7317400372761], [51.2014442089997, 35.7228188208699], [51.2102978697762, 35.7200589190937]]]]}}, {"type": "Feature", "properties": {"OBJECTID": 22, "reg_no": 22, "RegionID": 2, "Shape_Leng": 51329.82489, "Shape_Area": 58386658.5}, "geometry": {"type": "MultiPolygon", "coordinates": [[[[51.2911300119794, 35.7163015750424], [51.2545510602178, 35.7145095481637], [51.2461238087433, 35.7149821324217], [51.236598097001, 35.7168866444121], [51.2311320957947, 35.7176760981694], [51.2232415507841, 35.718096368682], [51.2190155200652, 35.7184440500447], [51.2147974198539, 35.7191078794597], [51.2102978697762, 35.7200589190937], [51.2014442089997, 35.7228188208699], [51.1789090670783, 35.7317400372761], [51.1518751124936, 35.7425468408214], [51.1486627559728, 35.7435552711887], [51.1421081761529, 35.7447005104854], [51.1378514997253, 35.7448467488685], [51.1318346447657, 35.7443318082887], [51.1211805617784, 35.7420131029486], [51.1154172611141, 35.7418615719277], [51.0973551674227, 35.7440159887138], [51.0902764262877, 35.7455751971211], [51.092241722525, 35.7491791318351], [51.0925849340393, 35.754380944945], [51.0940866401177, 35.757418817297], [51.0975421540031, 35.7557727529554], [51.0971900700236, 35.7547715965843], [51.0996208394426, 35.7533145560563], [51.1036936326257, 35.7528978968119], [51.1047843202584, 35.7536309695611], [51.1066895102343, 35.7514168724571], [51.1100590663163, 35.7523042879158], [51.1143955763887, 35.7528153342656], [51.1196798882298, 35.7548276092527], [51.1234876991292, 35.7535295869501], [51.1356507330755, 35.7556147303083], [51.1450967911985, 35.7584120037649], [51.1518174210094, 35.7609732770256], [51.1569191218387, 35.7619620617487], [51.1612631686854, 35.7621824024247], [51.1659392949682, 35.7650493087296], [51.1725967560195, 35.7671832410422], [51.1772463976391, 35.7680565445642], [51.1809980431559, 35.7681579247349], [51.1839556718973, 35.7671159000997], [51.1891208417638, 35.7638346619693], [51.190467955849, 35.7636256703394], [51.1982859434483, 35.7638700915541], [51.2004295537821, 35.7632459660219], [51.2015819684152, 35.764842717052], [51.2048032479235, 35.7652584256848], [51.2086761706001, 35.7639435067241], [51.2142850375692, 35.7634207441953], [51.2189941422399, 35.7632948184377], [51.2320155350385, 35.7625189787133], [51.2381731387867, 35.7646083542807], [51.2396048875268, 35.7660372568238], [51.2421606709542, 35.7658762812954], [51.2433292928996, 35.7650868059536], [51.2456927390964, 35.7665522133508], [51.2471547075314, 35.7692787728693], [51.249300190509, 35.7701977572572], [51.2548360733726, 35.7699394116365], [51.2537359035911, 35.7637081847799], [51.2619274138173, 35.7640977608401], [51.2625419022699, 35.7661259288151], [51.2621673829208, 35.7694535034637], [51.2637662406247, 35.7766053645998], [51.2636625958798, 35.7781765758169], [51.262284577688, 35.7803564733595], [51.2624509892863, 35.7822450763295], [51.2630546092507, 35.7795721336124], [51.2648625261734, 35.7790645630265], [51.2643476543163, 35.7772037001508], [51.2662696664061, 35.7753788520492], [51.2647976149705, 35.772735591988], [51.2644749636842, 35.7704547209439], [51.2628483184557, 35.7694563162194], [51.2634627575748, 35.7674582006987], [51.2664576193718, 35.7637994711044], [51.2669705819605, 35.7608783026825], [51.2686203252385, 35.756815773186], [51.2696722599146, 35.7555045488479], [51.2702658412374, 35.7531044719271], [51.2692459058961, 35.7508506310875], [51.2679504338968, 35.7497805816371], [51.2671129911632, 35.7473634100711], [51.2681529763689, 35.7451459471769], [51.2680954853681, 35.7434483101513], [51.2691947035819, 35.741580537457], [51.2691235597639, 35.7395397934232], [51.272763011815, 35.7374030977866], [51.2735095647338, 35.7355389242], [51.2770589730031, 35.7325808894093], [51.2794660877835, 35.731556697599], [51.2807417730091, 35.7299843843598], [51.283673900614, 35.7278716774967], [51.2845787520142, 35.7253733918073], [51.2888429566188, 35.720208034872], [51.2911300119794, 35.7163015750424]]]]}}]}